BEIDOU-3 M17 (C36)      
1 43706U 18093A   26061.46828306 -.00000026  00000+0  00000+0 0  9990
2 43706  54.1714 185.9163 0006994 297.4131  70.7484  1.86228347 49556
BEIDOU-3 M18 (C37)      
1 43707U 18093B   26061.31825568 -.00000028  00000+0  00000+0 0  9994
2 43707  54.1724 185.9133 0006020 341.6195  18.3110  1.86226384 49549
BEIDOU-3 IGSO-1 (C38)   
1 44204U 19023A   26062.82416976 -.00000206  00000+0  00000+0 0  9995
2 44204  58.5529  38.7313 0026007 236.5299 302.2114  1.00271041  6157
BEIDOU-2 G8 (C01)       
1 44231U 19027A   26062.40122155 -.00000262  00000+0  00000+0 0  9998
2 44231   1.8655  74.7300 0009271 269.3734 105.9868  1.00268063 25027
BEIDOU-3 IGSO-2 (C39)   
1 44337U 19035A   26057.68879618 -.00000176  00000+0  00000+0 0  9995
2 44337  55.2338 159.8353 0038734 206.4752 153.7223  1.00247364 24561
BEIDOU-3 M24 (C46)      
1 44542U 19061A   26062.46218233 -.00000017  00000+0  00000+0 0  9998
2 44542  54.3994 186.2929 0008607  21.3432 338.6489  1.86228787 43825
BEIDOU-3 M23 (C45)      
1 44543U 19061B   26062.31966779 -.00000018  00000+0  00000+0 0  9999
2 44543  54.3976 186.2660 0005077  14.2210 162.4807  1.86227170 43823
BEIDOU-3 IGSO-3 (C40)   
1 44709U 19073A   26062.00508347 -.00000154  00000+0  00000+0 0  9996
2 44709  54.9806 282.0451 0040489 189.0046 170.9845  1.00269768 23393
BEIDOU-3 M22 (C44)      
1 44793U 19078A   26059.07985671 -.00000039  00000+0  00000+0 0  9998
2 44793  54.0347 303.6688 0007221  34.9561 325.1493  1.86231871 42613
BEIDOU-3 M21 (C43)      
1 44794U 19078B   26062.44110506 -.00000055  00000+0  00000+0 0  9999
2 44794  54.0047 303.5128 0005885  39.3589 320.7432  1.86227535 42685
BEIDOU-3 M19 (C41)      
1 44864U 19090A   26061.26275238 -.00000008  00000+0  00000+0 0  9992
2 44864  56.4657  66.3234 0020408 291.3317 195.2232  1.86231220 42246
BEIDOU-3 M20 (C42)      
1 44865U 19090B   26062.82614198 -.00000021  00000+0  00000+0 0  9993
2 44865  56.4687  66.3059 0017813 302.9430 241.3938  1.86231297 42257
BEIDOU-3 G2 (C60)       
1 45344U 20017A   26063.10149411 -.00000151  00000+0  00000+0 0  9994
2 45344   2.6538  45.6555 0002769 309.2893 283.4763  1.00271474 22209
BEIDOU-3 G3 (C61)       
1 45807U 20040A   26063.03623380 -.00000365  00000+0  00000+0 0  9995
2 45807   2.1891  67.1211 0004301 315.9746 262.2089  1.00275572 21010
BEIDOU-3 G4 (C62)       
1 56564U 23066A   26063.19072549 -.00000124  00000+0  00000+0 0  9993
2 56564   0.6489 310.8945 0002044 159.5809 280.1635  1.00272234 10346
BEIDOU-3 M28 (C50)      
1 58654U 23207A   26061.98162292 -.00000017  00000+0  00000+0 0  9993
2 58654  55.6589  65.8845 0004896 302.3246  57.6586  1.86229755 14862
BEIDOU-3 M26 (C48)      
1 58655U 23207B   26062.31605649 -.00000020  00000+0  00000+0 0  9994
2 58655  55.6613  65.8595 0005721 288.0153  71.9513  1.86229607 14852
